{"type": "FeatureCollection", "features": [ {"type": "Feature", "properties": {"norad_id": 54234, "name": "NOAA 21 (JPSS-2)", "group": "weather", "lat": -75.01366804713193, "lon": 74.32750858609127, "alt_km": 835.1053013056999, "timestamp": "2025-12-19T04:59:47.942576+00:00", "meta": {"OBJECT_NAME": "NOAA 21 (JPSS-2)", "OBJECT_ID": "2022-150A", "EPOCH": "2025-12-18T21:01:09.520896", "MEAN_MOTION": 14.19525881, "ECCENTRICITY": 0.00019588, "INCLINATION": 98.7469, "RA_OF_ASC_NODE": 289.1077, "ARG_OF_PERICENTER": 25.9445, "MEAN_ANOMALY": 334.1829, "EPHEMERIS_TYPE": 0, "CLASSIFICATION_TYPE": "U", "NORAD_CAT_ID": 54234, "ELEMENT_SET_NO": 999, "REV_AT_EPOCH": 16096, "BSTAR": 4.5087093e-05, "MEAN_MOTION_DOT": 5.1e-07, "MEAN_MOTION_DDOT": 0}, "tle": {"line1": "1 54234U 22150A   25352.87580464  .00000051  00000+0  45087-4 0  9990", "line2": "2 54234  98.7469 289.1077 0001958  25.9445 334.1829 14.19525881160965"}}, "geometry": {"type": "Point", "coordinates": [74.32750858609127, -75.01366804713193]}}, {"type": "Feature", "properties": {"norad_id": 54743, "name": "METEOSAT-12 (MTG-I1)", "group": "weather", "lat": 0.46731868097907786, "lon": 162.6831029763127, "alt_km": 35787.6678180822, "timestamp": "2025-12-19T04:59:47.942588+00:00", "meta": {"OBJECT_NAME": "METEOSAT-12 (MTG-I1)", "OBJECT_ID": "2022-170C", "EPOCH": "2025-12-18T20:08:30.276384", "MEAN_MOTION": 1.00270365, "ECCENTRICITY": 0.00014877, "INCLINATION": 0.6932, "RA_OF_ASC_NODE": 24.6217, "ARG_OF_PERICENTER": 239.6073, "MEAN_ANOMALY": 125.2936, "EPHEMERIS_TYPE": 0, "CLASSIFICATION_TYPE": "U", "NORAD_CAT_ID": 54743, "ELEMENT_SET_NO": 999, "REV_AT_EPOCH": 1116, "BSTAR": 0, "MEAN_MOTION_DOT": 1.7e-07, "MEAN_MOTION_DDOT": 0}, "tle": {"line1": "1 54743U 22170C   25352.83923931  .00000017  00000+0  00000+0 0  9996", "line2": "2 54743   0.6932  24.6217 0001487 239.6073 125.2936  1.00270365 11168"}}, "geometry": {"type": "Point", "coordinates": [162.6831029763127, 0.46731868097907786]}}, {"type": "Feature", "properties": {"norad_id": 55973, "name": "TIANMU-1 03", "group": "weather", "lat": 51.2433266197463, "lon": -14.500485538987306, "alt_km": 437.94829150462465, "timestamp": "2025-12-19T04:59:47.942599+00:00", "meta": {"OBJECT_NAME": "TIANMU-1 03", "OBJECT_ID": "2023-039A", "EPOCH": "2025-12-18T23:46:05.413152", "MEAN_MOTION": 15.4110024, "ECCENTRICITY": 0.00041264, "INCLINATION": 97.5101, "RA_OF_ASC_NODE": 155.8169, "ARG_OF_PERICENTER": 43.2907, "MEAN_ANOMALY": 316.8663, "EPHEMERIS_TYPE": 0, "CLASSIFICATION_TYPE": "U", "NORAD_CAT_ID": 55973, "ELEMENT_SET_NO": 999, "REV_AT_EPOCH": 15302, "BSTAR": 0.00030406323, "MEAN_MOTION_DOT": 0.000125, "MEAN_MOTION_DDOT": 0}, "tle": {"line1": "1 55973U 23039A   25352.99034043  .00012500  00000+0  30406-3 0  9998", "line2": "2 55973  97.5101 155.8169 0004126  43.2907 316.8663 15.41100240153029"}}, "geometry": {"type": "Point", "coordinates": [-14.500485538987306, 51.2433266197463]}}, {"type": "Feature", "properties": {"norad_id": 55974, "name": "TIANMU-1 04", "group": "weather", "lat": -68.57330028452908, "lon": -44.396273319353995, "alt_km": 451.84385535278307, "timestamp": "2025-12-19T04:59:47.942609+00:00", "meta": {"OBJECT_NAME": "TIANMU-1 04", "OBJECT_ID": "2023-039B", "EPOCH": "2025-12-18T23:14:31.310016", "MEAN_MOTION": 15.41440198, "ECCENTRICITY": 0.00047654, "INCLINATION": 97.5034, "RA_OF_ASC_NODE": 154.9828, "ARG_OF_PERICENTER": 37.2951, "MEAN_ANOMALY": 322.8626, "EPHEMERIS_TYPE": 0, "CLASSIFICATION_TYPE": "U", "NORAD_CAT_ID": 55974, "ELEMENT_SET_NO": 999, "REV_AT_EPOCH": 15302, "BSTAR": 0.00030037031, "MEAN_MOTION_DOT": 0.00012489, "MEAN_MOTION_DDOT": 0}, "tle": {"line1": "1 55974U 23039B   25352.96841794  .00012489  00000+0  30037-3 0  9991", "line2": "2 55974  97.5034 154.9828 0004765  37.2951 322.8626 15.41440198153023"}}, "geometry": {"type": "Point", "coordinates": [-44.396273319353995, -68.57330028452908]}}, {"type": "Feature", "properties": {"norad_id": 55975, "name": "TIANMU-1 05", "group": "weather", "lat": -81.96512574287891, "lon": -135.16179651474664, "alt_km": 452.7459064003242, "timestamp": "2025-12-19T04:59:47.942622+00:00", "meta": {"OBJECT_NAME": "TIANMU-1 05", "OBJECT_ID": "2023-039C", "EPOCH": "2025-12-18T23:08:27.364704", "MEAN_MOTION": 15.41056354, "ECCENTRICITY": 0.00041908, "INCLINATION": 97.508, "RA_OF_ASC_NODE": 155.4711, "ARG_OF_PERICENTER": 61.0627, "MEAN_ANOMALY": 299.1039, "EPHEMERIS_TYPE": 0, "CLASSIFICATION_TYPE": "U", "NORAD_CAT_ID": 55975, "ELEMENT_SET_NO": 999, "REV_AT_EPOCH": 15300, "BSTAR": 0.00029323617, "MEAN_MOTION_DOT": 0.00012034, "MEAN_MOTION_DDOT": 0}, "tle": {"line1": "1 55975U 23039C   25352.96420561  .00012034  00000+0  29324-3 0  9990", "line2": "2 55975  97.5080 155.4711 0004190  61.0627 299.1039 15.41056354153008"}}, "geometry": {"type": "Point", "coordinates": [-135.16179651474664, -81.96512574287891]}}, {"type": "Feature", "properties": {"norad_id": 55976, "name": "TIANMU-1 06", "group": "weather", "lat": -58.26283753543334, "lon": -36.12165247473124, "alt_km": 451.8724233239627, "timestamp": "2025-12-19T04:59:47.942633+00:00", "meta": {"OBJECT_NAME": "TIANMU-1 06", "OBJECT_ID": "2023-039D", "EPOCH": "2025-12-18T23:17:21.156864", "MEAN_MOTION": 15.41491867, "ECCENTRICITY": 0.00044605, "INCLINATION": 97.5091, "RA_OF_ASC_NODE": 155.9477, "ARG_OF_PERICENTER": 55.6607, "MEAN_ANOMALY": 304.5061, "EPHEMERIS_TYPE": 0, "CLASSIFICATION_TYPE": "U", "NORAD_CAT_ID": 55976, "ELEMENT_SET_NO": 999, "REV_AT_EPOCH": 15302, "BSTAR": 0.00029959071, "MEAN_MOTION_DOT": 0.00012477, "MEAN_MOTION_DDOT": 0}, "tle": {"line1": "1 55976U 23039D   25352.97038376  .00012477  00000+0  29959-3 0  9996", "line2": "2 55976  97.5091 155.9477 0004460  55.6607 304.5061 15.41491867153022"}}, "geometry": {"type": "Point", "coordinates": [-36.12165247473124, -58.26283753543334]}}, {"type": "Feature", "properties": {"norad_id": 56232, "name": "FENGYUN 3G", "group": "weather", "lat": -42.245055845398824, "lon": 144.35232149072226, "alt_km": 412.3655769064271, "timestamp": "2025-12-19T04:59:47.942643+00:00", "meta": {"OBJECT_NAME": "FENGYUN 3G", "OBJECT_ID": "2023-055A", "EPOCH": "2025-12-18T23:05:15.512640", "MEAN_MOTION": 15.54006289, "ECCENTRICITY": 0.00093009, "INCLINATION": 49.9921, "RA_OF_ASC_NODE": 195.3371, "ARG_OF_PERICENTER": 176.6524, "MEAN_ANOMALY": 183.4508, "EPHEMERIS_TYPE": 0, "CLASSIFICATION_TYPE": "U", "NORAD_CAT_ID": 56232, "ELEMENT_SET_NO": 999, "REV_AT_EPOCH": 15199, "BSTAR": 0.00039250893, "MEAN_MOTION_DOT": 0.00025554, "MEAN_MOTION_DDOT": 0}, "tle": {"line1": "1 56232U 23055A   25352.96198510  .00025554  00000+0  39251-3 0  9992", "line2": "2 56232  49.9921 195.3371 0009300 176.6524 183.4508 15.54006289151990"}}, "geometry": {"type": "Point", "coordinates": [144.35232149072226, -42.245055845398824]}}, {"type": "Feature", "properties": {"norad_id": 57166, "name": "METEOR-M2 3", "group": "weather", "lat": -81.29211319698689, "lon": 143.71192271960777, "alt_km": 818.6877601161113, "timestamp": "2025-12-19T04:59:47.942654+00:00", "meta": {"OBJECT_NAME": "METEOR-M2 3", "OBJECT_ID": "2023-091A", "EPOCH": "2025-12-18T22:40:41.918304", "MEAN_MOTION": 14.24026793, "ECCENTRICITY": 0.00035524, "INCLINATION": 98.6371, "RA_OF_ASC_NODE": 46.3757, "ARG_OF_PERICENTER": 350.4382, "MEAN_ANOMALY": 9.6728, "EPHEMERIS_TYPE": 0, "CLASSIFICATION_TYPE": "U", "NORAD_CAT_ID": 57166, "ELEMENT_SET_NO": 999, "REV_AT_EPOCH": 12886, "BSTAR": 2.667535e-05, "MEAN_MOTION_DOT": 1.8e-07, "MEAN_MOTION_DDOT": 0}, "tle": {"line1": "1 57166U 23091A   25352.94492961  .00000018  00000+0  26675-4 0  9999", "line2": "2 57166  98.6371  46.3757 0003552 350.4382   9.6728 14.24026793128868"}}, "geometry": {"type": "Point", "coordinates": [143.71192271960777, -81.29211319698689]}}, {"type": "Feature", "properties": {"norad_id": 57399, "name": "TIANMU-1 07", "group": "weather", "lat": -4.3322034730458805, "lon": 43.47123315508003, "alt_km": 483.6607253454731, "timestamp": "2025-12-19T04:59:47.942664+00:00", "meta": {"OBJECT_NAME": "TIANMU-1 07", "OBJECT_ID": "2023-101A", "EPOCH": "2025-12-18T22:43:46.499808", "MEAN_MOTION": 15.28157568, "ECCENTRICITY": 0.00053638, "INCLINATION": 97.2871, "RA_OF_ASC_NODE": 42.6604, "ARG_OF_PERICENTER": 65.9991, "MEAN_ANOMALY": 294.181, "EPHEMERIS_TYPE": 0, "CLASSIFICATION_TYPE": "U", "NORAD_CAT_ID": 57399, "ELEMENT_SET_NO": 999, "REV_AT_EPOCH": 13410, "BSTAR": 0.00022194891, "MEAN_MOTION_DOT": 6.021e-05, "MEAN_MOTION_DDOT": 0}, "tle": {"line1": "1 57399U 23101A   25352.94706597  .00006021  00000+0  22195-3 0  9994", "line2": "2 57399  97.2871  42.6604 0005363  65.9991 294.1810 15.28157568134109"}}, "geometry": {"type": "Point", "coordinates": [43.47123315508003, -4.3322034730458805]}}, {"type": "Feature", "properties": {"norad_id": 57400, "name": "TIANMU-1 08", "group": "weather", "lat": 2.621952100788362, "lon": -136.95161613276366, "alt_km": 485.96923248264284, "timestamp": "2025-12-19T04:59:47.942674+00:00", "meta": {"OBJECT_NAME": "TIANMU-1 08", "OBJECT_ID": "2023-101B", "EPOCH": "2025-12-18T23:30:34.284672", "MEAN_MOTION": 15.28140521, "ECCENTRICITY": 0.00073232, "INCLINATION": 97.2861, "RA_OF_ASC_NODE": 42.4891, "ARG_OF_PERICENTER": 66.4011, "MEAN_ANOMALY": 293.7997, "EPHEMERIS_TYPE": 0, "CLASSIFICATION_TYPE": "U", "NORAD_CAT_ID": 57400, "ELEMENT_SET_NO": 999, "REV_AT_EPOCH": 13410, "BSTAR": 0.00021136682, "MEAN_MOTION_DOT": 5.729e-05, "MEAN_MOTION_DDOT": 0}, "tle": {"line1": "1 57400U 23101B   25352.97956348  .00005729  00000+0  21137-3 0  9990", "line2": "2 57400  97.2861  42.4891 0007323  66.4011 293.7997 15.28140521134106"}}, "geometry": {"type": "Point", "coordinates": [-136.95161613276366, 2.621952100788362]}}]}